[{"OBJECT_NAME":"STARLINK-4044","OBJECT_ID":"2022-053G","EPOCH":"2026-03-09T13:03:24.658560","MEAN_MOTION":15.08832233,"ECCENTRICITY":0.00013757,"INCLINATION":53.2179,"RA_OF_ASC_NODE":154.7777,"ARG_OF_PERICENTER":90.5323,"MEAN_ANOMALY":269.5827,"EPHEMERIS_TYPE":0,"CLASSIFICATION_TYPE":"U","NORAD_CAT_ID":52662,"ELEMENT_SET_NO":999,"REV_AT_EPOCH":21102,"BSTAR":2.984641e-6,"MEAN_MOTION_DOT":-2.4e-6,"MEAN_MOTION_DDOT":0},{"OBJECT_NAME":"YUNYAO-1 47","OBJECT_ID":"2025-059E","EPOCH":"2026-03-09T22:46:15.708288","MEAN_MOTION":15.10508558,"ECCENTRICITY":0.00172664,"INCLINATION":97.6066,"RA_OF_ASC_NODE":250.9227,"ARG_OF_PERICENTER":135.6694,"MEAN_ANOMALY":224.5922,"EPHEMERIS_TYPE":0,"CLASSIFICATION_TYPE":"U","NORAD_CAT_ID":63348,"ELEMENT_SET_NO":999,"REV_AT_EPOCH":5331,"BSTAR":0.00029014568,"MEAN_MOTION_DOT":4.732e-5,"MEAN_MOTION_DDOT":0}]
